STARLINK-1790           
1 46691U 20073X   26083.00002315  .00175588  00000+0  10112-2 0  9998
2 46691  53.0389 127.2263 0000897  11.7107 112.7880 15.77678768  5936
STARLINK-1795           
1 46696U 20073AC  26083.00002315  .00087902  00000+0  70846-3 0  9996
2 46696  53.0392 110.2401 0003952  79.8000 100.3388 15.70181482  5866
STARLINK-1797           
1 46698U 20073AE  26082.88350572  .00067965  00000+0  90787-3 0  9997
2 46698  53.0436 140.0586 0005285  61.3218 298.8324 15.57446347299801
STARLINK-1799           
1 46699U 20073AF  26083.00002315  .00236567  00000+0  11377-2 0  9995
2 46699  53.0434 123.7214 0005265 331.7925 247.6035 15.81457299  5994
STARLINK-1800           
1 46700U 20073AG  26083.00002315  .00275147  00000+0  10779-2 0  9990
2 46700  53.0367 137.2530 0008128   8.9415 188.7716 15.85666660  5888
STARLINK-1801           
1 46701U 20073AH  26083.00002315  .00084964  00000+0  55097-3 0  9999
2 46701  53.0425 126.8644 0004570 293.1278 330.8322 15.75304541  5920
STARLINK-1802           
1 46702U 20073AJ  26082.48938873  .00030727  00000+0  10346-2 0  9993
2 46702  53.1572 152.9568 0001597  82.6795 277.4387 15.30534684299590
STARLINK-1805           
1 46705U 20073AM  26082.66249596  .00051246  00000+0  76766-3 0  9991
2 46705  53.0495 176.2084 0004766 321.5113  38.5556 15.54462788299278
STARLINK-1807           
1 46706U 20073AN  26082.61452720  .00023378  00000+0  93840-3 0  9999
2 46706  53.0623 164.1316 0001372 245.3319 114.7535 15.24885819299441
STARLINK-1810           
1 46709U 20073AR  26082.63873062  .00049080  00000+0  88673-3 0  9996
2 46709  53.0460 165.2256 0001810 291.5542  68.5272 15.49249101299423
STARLINK-1814           
1 46712U 20073AU  26083.19937903  .02036461  11789-4  11612-2 0  9997
2 46712  53.0263 109.3597 0007206  27.4961 332.6456 16.18325892300253
STARLINK-1815           
1 46713U 20073AV  26083.00002315  .00082899  00000+0  63313-3 0  9997
2 46713  53.0418 131.5093 0006461  30.9934 172.6445 15.71477437  5652
STARLINK-1816           
1 46714U 20073AW  26083.00002315  .00156834  00000+0  90388-3 0  9991
2 46714  53.0375 127.3451 0002221  40.9090 113.8701 15.77719319  5993
STARLINK-1817           
1 46715U 20073AX  26082.89530445  .00078420  00000+0  78427-3 0  9992
2 46715  53.0459 147.7620 0005817 335.7057  24.3682 15.64903210299690
STARLINK-1820           
1 46717U 20073AZ  26083.00002315  .00523764  12810-3  10971-2 0  9999
2 46717  53.0348  89.2362 0005953  43.0964  12.0725 15.98393768  6011
STARLINK-1821           
1 46718U 20073BA  26082.49693872  .00026728  00000+0  67234-3 0  9993
2 46718  53.0463 161.4078 0001833 270.0562  90.0231 15.39775068299470
