[{"OBJECT_NAME":"STARLINK-1790","OBJECT_ID":"2020-073X","EPOCH":"2026-03-24T00:00:02.000160","MEAN_MOTION":15.77678768,"ECCENTRICITY":8.979e-5,"INCLINATION":53.0389,"RA_OF_ASC_NODE":127.2263,"ARG_OF_PERICENTER":11.7107,"MEAN_ANOMALY":112.788,"EPHEMERIS_TYPE":0,"CLASSIFICATION_TYPE":"U","NORAD_CAT_ID":46691,"ELEMENT_SET_NO":999,"REV_AT_EPOCH":593,"BSTAR":0.0010111526,"MEAN_MOTION_DOT":0.00175588,"MEAN_MOTION_DDOT":0},{"OBJECT_NAME":"STARLINK-1795","OBJECT_ID":"2020-073AC","EPOCH":"2026-03-24T00:00:02.000160","MEAN_MOTION":15.70181482,"ECCENTRICITY":0.00039527,"INCLINATION":53.0392,"RA_OF_ASC_NODE":110.2401,"ARG_OF_PERICENTER":79.8,"MEAN_ANOMALY":100.3388,"EPHEMERIS_TYPE":0,"CLASSIFICATION_TYPE":"U","NORAD_CAT_ID":46696,"ELEMENT_SET_NO":999,"REV_AT_EPOCH":586,"BSTAR":0.00070845751,"MEAN_MOTION_DOT":0.00087902,"MEAN_MOTION_DDOT":0},{"OBJECT_NAME":"STARLINK-1797","OBJECT_ID":"2020-073AE","EPOCH":"2026-03-23T21:12:14.894208","MEAN_MOTION":15.57446347,"ECCENTRICITY":0.00052854,"INCLINATION":53.0436,"RA_OF_ASC_NODE":140.0586,"ARG_OF_PERICENTER":61.3218,"MEAN_ANOMALY":298.8324,"EPHEMERIS_TYPE":0,"CLASSIFICATION_TYPE":"U","NORAD_CAT_ID":46698,"ELEMENT_SET_NO":999,"REV_AT_EPOCH":29980,"BSTAR":0.00090787183,"MEAN_MOTION_DOT":0.00067965,"MEAN_MOTION_DDOT":0},{"OBJECT_NAME":"STARLINK-1799","OBJECT_ID":"2020-073AF","EPOCH":"2026-03-24T00:00:02.000160","MEAN_MOTION":15.81457299,"ECCENTRICITY":0.00052654,"INCLINATION":53.0434,"RA_OF_ASC_NODE":123.7214,"ARG_OF_PERICENTER":331.7925,"MEAN_ANOMALY":247.6035,"EPHEMERIS_TYPE":0,"CLASSIFICATION_TYPE":"U","NORAD_CAT_ID":46699,"ELEMENT_SET_NO":999,"REV_AT_EPOCH":599,"BSTAR":0.0011376529,"MEAN_MOTION_DOT":0.00236567,"MEAN_MOTION_DDOT":0},{"OBJECT_NAME":"STARLINK-1800","OBJECT_ID":"2020-073AG","EPOCH":"2026-03-24T00:00:02.000160","MEAN_MOTION":15.8566666,"ECCENTRICITY":0.00081289,"INCLINATION":53.0367,"RA_OF_ASC_NODE":137.253,"ARG_OF_PERICENTER":8.9415,"MEAN_ANOMALY":188.7716,"EPHEMERIS_TYPE":0,"CLASSIFICATION_TYPE":"U","NORAD_CAT_ID":46700,"ELEMENT_SET_NO":999,"REV_AT_EPOCH":588,"BSTAR":0.0010778834,"MEAN_MOTION_DOT":0.00275147,"MEAN_MOTION_DDOT":0},{"OBJECT_NAME":"STARLINK-1801","OBJECT_ID":"2020-073AH","EPOCH":"2026-03-24T00:00:02.000160","MEAN_MOTION":15.75304541,"ECCENTRICITY":0.00045703,"INCLINATION":53.0425,"RA_OF_ASC_NODE":126.8644,"ARG_OF_PERICENTER":293.1278,"MEAN_ANOMALY":330.8322,"EPHEMERIS_TYPE":0,"CLASSIFICATION_TYPE":"U","NORAD_CAT_ID":46701,"ELEMENT_SET_NO":999,"REV_AT_EPOCH":592,"BSTAR":0.00055096915,"MEAN_MOTION_DOT":0.00084964,"MEAN_MOTION_DDOT":0},{"OBJECT_NAME":"STARLINK-1802","OBJECT_ID":"2020-073AJ","EPOCH":"2026-03-23T11:44:43.186272","MEAN_MOTION":15.30534684,"ECCENTRICITY":0.00015977,"INCLINATION":53.1572,"RA_OF_ASC_NODE":152.9568,"ARG_OF_PERICENTER":82.6795,"MEAN_ANOMALY":277.4387,"EPHEMERIS_TYPE":0,"CLASSIFICATION_TYPE":"U","NORAD_CAT_ID":46702,"ELEMENT_SET_NO":999,"REV_AT_EPOCH":29959,"BSTAR":0.0010345511,"MEAN_MOTION_DOT":0.00030727,"MEAN_MOTION_DDOT":0},{"OBJECT_NAME":"STARLINK-1805","OBJECT_ID":"2020-073AM","EPOCH":"2026-03-23T15:53:59.650944","MEAN_MOTION":15.54462788,"ECCENTRICITY":0.00047664,"INCLINATION":53.0495,"RA_OF_ASC_NODE":176.2084,"ARG_OF_PERICENTER":321.5113,"MEAN_ANOMALY":38.5556,"EPHEMERIS_TYPE":0,"CLASSIFICATION_TYPE":"U","NORAD_CAT_ID":46705,"ELEMENT_SET_NO":999,"REV_AT_EPOCH":29927,"BSTAR":0.00076766426,"MEAN_MOTION_DOT":0.00051246,"MEAN_MOTION_DDOT":0},{"OBJECT_NAME":"STARLINK-1807","OBJECT_ID":"2020-073AN","EPOCH":"2026-03-23T14:44:55.150080","MEAN_MOTION":15.24885819,"ECCENTRICITY":0.00013725,"INCLINATION":53.0623,"RA_OF_ASC_NODE":164.1316,"ARG_OF_PERICENTER":245.3319,"MEAN_ANOMALY":114.7535,"EPHEMERIS_TYPE":0,"CLASSIFICATION_TYPE":"U","NORAD_CAT_ID":46706,"ELEMENT_SET_NO":999,"REV_AT_EPOCH":29944,"BSTAR":0.00093840068,"MEAN_MOTION_DOT":0.00023378,"MEAN_MOTION_DDOT":0},{"OBJECT_NAME":"STARLINK-1810","OBJECT_ID":"2020-073AR","EPOCH":"2026-03-23T15:19:46.325568","MEAN_MOTION":15.49249101,"ECCENTRICITY":0.00018107,"INCLINATION":53.046,"RA_OF_ASC_NODE":165.2256,"ARG_OF_PERICENTER":291.5542,"MEAN_ANOMALY":68.5272,"EPHEMERIS_TYPE":0,"CLASSIFICATION_TYPE":"U","NORAD_CAT_ID":46709,"ELEMENT_SET_NO":999,"REV_AT_EPOCH":29942,"BSTAR":0.00088672934,"MEAN_MOTION_DOT":0.0004908,"MEAN_MOTION_DDOT":0},{"OBJECT_NAME":"STARLINK-1814","OBJECT_ID":"2020-073AU","EPOCH":"2026-03-24T04:47:06.348192","MEAN_MOTION":16.18325892,"ECCENTRICITY":0.0007206,"INCLINATION":53.0263,"RA_OF_ASC_NODE":109.3597,"ARG_OF_PERICENTER":27.4961,"MEAN_ANOMALY":332.6456,"EPHEMERIS_TYPE":0,"CLASSIFICATION_TYPE":"U","NORAD_CAT_ID":46712,"ELEMENT_SET_NO":999,"REV_AT_EPOCH":30025,"BSTAR":0.0011612,"MEAN_MOTION_DOT":0.02036461,"MEAN_MOTION_DDOT":1.1789e-5},{"OBJECT_NAME":"STARLINK-1815","OBJECT_ID":"2020-073AV","EPOCH":"2026-03-24T00:00:02.000160","MEAN_MOTION":15.71477437,"ECCENTRICITY":0.00064612,"INCLINATION":53.0418,"RA_OF_ASC_NODE":131.5093,"ARG_OF_PERICENTER":30.9934,"MEAN_ANOMALY":172.6445,"EPHEMERIS_TYPE":0,"CLASSIFICATION_TYPE":"U","NORAD_CAT_ID":46713,"ELEMENT_SET_NO":999,"REV_AT_EPOCH":565,"BSTAR":0.00063313028,"MEAN_MOTION_DOT":0.00082899,"MEAN_MOTION_DDOT":0},{"OBJECT_NAME":"STARLINK-1816","OBJECT_ID":"2020-073AW","EPOCH":"2026-03-24T00:00:02.000160","MEAN_MOTION":15.77719319,"ECCENTRICITY":0.00022214,"INCLINATION":53.0375,"RA_OF_ASC_NODE":127.3451,"ARG_OF_PERICENTER":40.909,"MEAN_ANOMALY":113.8701,"EPHEMERIS_TYPE":0,"CLASSIFICATION_TYPE":"U","NORAD_CAT_ID":46714,"ELEMENT_SET_NO":999,"REV_AT_EPOCH":599,"BSTAR":0.00090387994,"MEAN_MOTION_DOT":0.00156834,"MEAN_MOTION_DDOT":0},{"OBJECT_NAME":"STARLINK-1817","OBJECT_ID":"2020-073AX","EPOCH":"2026-03-23T21:29:14.304480","MEAN_MOTION":15.6490321,"ECCENTRICITY":0.00058176,"INCLINATION":53.0459,"RA_OF_ASC_NODE":147.762,"ARG_OF_PERICENTER":335.7057,"MEAN_ANOMALY":24.3682,"EPHEMERIS_TYPE":0,"CLASSIFICATION_TYPE":"U","NORAD_CAT_ID":46715,"ELEMENT_SET_NO":999,"REV_AT_EPOCH":29969,"BSTAR":0.00078427188,"MEAN_MOTION_DOT":0.0007842,"MEAN_MOTION_DDOT":0},{"OBJECT_NAME":"STARLINK-1820","OBJECT_ID":"2020-073AZ","EPOCH":"2026-03-24T00:00:02.000160","MEAN_MOTION":15.98393768,"ECCENTRICITY":0.00059532,"INCLINATION":53.0348,"RA_OF_ASC_NODE":89.2362,"ARG_OF_PERICENTER":43.0964,"MEAN_ANOMALY":12.0725,"EPHEMERIS_TYPE":0,"CLASSIFICATION_TYPE":"U","NORAD_CAT_ID":46717,"ELEMENT_SET_NO":999,"REV_AT_EPOCH":601,"BSTAR":0.0010971046,"MEAN_MOTION_DOT":0.00523764,"MEAN_MOTION_DDOT":0.00012809678},{"OBJECT_NAME":"STARLINK-1821","OBJECT_ID":"2020-073BA","EPOCH":"2026-03-23T11:55:35.505408","MEAN_MOTION":15.39775068,"ECCENTRICITY":0.00018332,"INCLINATION":53.0463,"RA_OF_ASC_NODE":161.4078,"ARG_OF_PERICENTER":270.0562,"MEAN_ANOMALY":90.0231,"EPHEMERIS_TYPE":0,"CLASSIFICATION_TYPE":"U","NORAD_CAT_ID":46718,"ELEMENT_SET_NO":999,"REV_AT_EPOCH":29947,"BSTAR":0.00067234266,"MEAN_MOTION_DOT":0.00026728,"MEAN_MOTION_DDOT":0}]
